[
    {
        "Altitude(m)": 605470.7505194733,
        "Argument of Periapsis(deg)": 0.0,
        "Eccentricity": 0.0,
        "Inclination(deg)": 60.0,
        "Latitude(deg)": 27.988077962503358,
        "Longitude(deg)": -22.73710765314265,
        "Mean Anomaly(deg)": -212.7273,
        "RAAN(deg)": 275.0,
        "Satellite Name": "Test1 1219",
        "Satellite Number": 1219,
        "Semi-Major Axis(m)": 6980739.136638005,
        "Time(s)": 0
    },
    {
        "Altitude(m)": 605395.7890842751,
        "Argument of Periapsis(deg)": 0.00010418945913296404,
        "Eccentricity": 0.0,
        "Inclination(deg)": 60.0,
        "Latitude(deg)": 27.473769290510315,
        "Longitude(deg)": -22.383919101518707,
        "Mean Anomaly(deg)": -212.1071938545382,
        "RAAN(deg)": 274.9995799508602,
        "Satellite Name": "Test1 1219",
        "Satellite Number": 1219,
        "Semi-Major Axis(m)": 6980739.136638005,
        "Time(s)": 10
    }
]